satname,norad_id,inclination_deg,eccentricity,mean_motion_rev_per_day,perigee_km,apogee_km,l1,l2
STARLINK-1564,46058,53.1606,0.000262,15.30182282,473.4723805812573,477.06356478694397,1 46058U 20055AH  26158.42546946 -.00004487  00000+0 -13949-3 0  9990,2 46058  53.1606  57.5550 0002620  90.9095 269.2206 15.30182282322809
STARLINK-1570,46059,53.1594,0.0001288,15.31710424,469.8267906455376,471.591053355045,1 46059U 20055AJ  26158.00756204  .00005617  00000+0  19257-3 0  9997,2 46059  53.1594  58.4394 0001288  90.2131 269.9018 15.31710424322719
STARLINK-1572,46060,53.1603,0.000126,15.30212198,474.3151308602419,476.0421664036967,1 46060U 20055AK  26158.01456323  .00007713  00000+0  27215-3 0  9991,2 46060  53.1603  59.2128 0001260  98.8525 261.2618 15.30212198322712
STARLINK-1573,46061,53.1608,0.0001297,15.31700924,469.8489418420768,471.62553982014924,1 46061U 20055AL  26158.45032818  .00002921  00000+0  10584-3 0  9996,2 46061  53.1608  56.3445 0001297  84.1082 276.0067 15.31700924322828
STARLINK-1577,46063,53.1585,7.74e-05,15.31710714,470.1779569278715,471.23815814277714,1 46063U 20055AN  26158.41303865  .00004551  00000+0  15827-3 0  9993,2 46063  53.1585  56.5176 0000774 124.9819 235.1255 15.31710714322819
STARLINK-1583,46064,53.1626,0.0001899,15.31704796,469.4250996100445,472.0262976629874,1 46064U 20055AP  26158.42709708  .00002750  00000+0  10033-3 0  9994,2 46064  53.1626  56.9485 0001899  98.3252 261.7964 15.31704796322801
STARLINK-1536,46070,53.1608,0.0001669,15.31704463,469.583615937112,471.8697666372627,1 46070U 20055AV  26156.86237453  .00001764  00000+0  68605-4 0  9993,2 46070  53.1608  51.6322 0001669 126.3840 233.7315 15.31704463322743
STARLINK-1542,46073,53.1572,0.0001029,15.31722176,469.96914788051254,471.3786331617812,1 46073U 20055AY  26158.38749664  .00006501  00000+0  22093-3 0  9991,2 46073  53.1572  47.4902 0001029 113.7536 246.3574 15.31722176322923
STARLINK-1549,46074,53.053,0.0003242,15.29266779,475.78015544855225,480.22567657009404,1 46074U 20055AZ  26158.41174610  .00033599  00000+0  11744-2 0  9996,2 46074  53.0530  44.5353 0003242 113.3812 246.7529 15.29266779322953
STARLINK-1551,46075,53.1595,8.97e-05,15.30187893,474.63647005412804,475.8659679006114,1 46075U 20055BA  26158.41640843  .00001167  00000+0  51537-4 0  9995,2 46075  53.1595  44.2928 0000897  89.7183 270.3920 15.30187893322972
STARLINK-1552,46076,53.1613,6.58e-05,15.31705702,470.2723429252228,471.1736529009477,1 46076U 20055BB  26158.40535091  .00004112  00000+0  14417-3 0  9991,2 46076  53.1613  43.9608 0000658  79.4107 280.6968 15.31705702322963
STARLINK-1559,46077,53.0245,0.0001115,15.38317278,450.3235202768428,451.84643677805434,1 46077U 20055BC  26158.85912661  .00041377  00000+0  10838-2 0  9999,2 46077  53.0245  11.3350 0001115 112.3560 247.7561 15.38317278323425
STARLINK-1566,46079,53.162,8.09e-05,15.31725242,470.1106831087973,471.2188192321373,1 46079U 20055BE  26158.40997715 -.00004256  00000+0 -12538-3 0  9992,2 46079  53.1620  43.7901 0000809 114.5490 245.5596 15.31725242322982
STARLINK-1568,46080,53.0582,0.0002981,15.54231765,402.3648431836964,406.4085838216861,1 46080U 20055BF  26158.74985083  .00050425  00000+0  76214-3 0  9994,2 46080  53.0582 320.7509 0002981  69.3565 290.7764 15.54231765324163
STARLINK-1578,46082,53.16,0.0001082,15.31708121,469.97474118263017,471.45683292574813,1 46082U 20055BH  26158.41437720  .00002369  00000+0  88067-4 0  9994,2 46082  53.1600  44.2848 0001082  90.3543 269.7582 15.31708121322973
STARLINK-1579,46083,53.1631,0.0001397,15.31701783,469.7778928268581,471.69146757430644,1 46083U 20055BJ  26158.40067176  .00000752  00000+0  35990-4 0  9999,2 46083  53.1631  43.8791 0001397 112.4349 247.6801 15.31701783322975
STARLINK-1622,46128,53.0137,0.0006884,15.84836755,312.17565043689046,321.3932182677063,1 46128U 20057M   26158.83337963  .00250236  00000+0  10240-2 0  9995,2 46128  53.0137 136.0694 0006884  65.3128 240.0405 15.84836755  5992
STARLINK-1623,46129,53.0399,0.0006182,15.74818135,340.9924139456689,349.305084445974,1 46129U 20057N   26158.83337963  .00109020  00000+0  71849-3 0  9993,2 46129  53.0399 174.2705 0006182  30.2876 111.6184 15.74818135  5978
STARLINK-1596,46141,53.0345,0.0007151,15.59568223,384.0666813835087,393.7449059870378,1 46141U 20057AA  26158.70400764  .00085890  00000+0  10547-2 0  9998,2 46141  53.0345 157.3923 0007151  31.1501 328.9934 15.59568223321250
STARLINK-1597,46142,53.0403,0.0004907,15.74536378,342.6512854943103,349.2503052566926,1 46142U 20057AB  26158.40421043  .00109457  00000+0  73046-3 0  9999,2 46142  53.0403 216.1516 0004907  26.8864 333.2408 15.74536378320399
STARLINK-1606,46144,53.0331,0.0002014,15.94099902,289.4804657957693,292.1667231232168,1 46144U 20057AD  26158.83337963  .00372965  65536-4  99144-3 0  9998,2 46144  53.0331 166.9397 0002014 146.5581 260.6527 15.94099902  6051
STARLINK-1608,46146,53.1576,0.0004387,15.35954995,455.086316274168,461.0844177789959,1 46146U 20057AF  26158.52671486  .00039006  00000+0  11034-2 0  9994,2 46146  53.1576 250.7105 0004387 338.9092  21.1729 15.35954995319950
STARLINK-1667,46155,53.013,0.0006795,15.9065047,295.92339704645383,304.9996124143827,1 46155U 20057AQ  26158.83337963  .00319265  48944-4  10155-2 0  9992,2 46155  53.0130 135.2575 0006795  66.8783 260.3592 15.90650470  6008
STARLINK-1545,46156,53.0371,0.0001251,15.85706091,313.5000654218411,315.1745224901888,1 46156U 20057AR  26158.83337963  .00704329  00000+0  26213-2 0  9990,2 46156  53.0371 171.5685 0001251  69.3372 230.4286 15.85706091  5838
STARLINK-1595,46159,53.041,0.0005338,15.72348967,348.59295485063285,355.77824725951905,1 46159U 20057AU  26158.43540013  .00099787  00000+0  73245-3 0  9994,2 46159  53.0410 218.7441 0005338  17.0126 343.1069 15.72348967321625
STARLINK-1598,46160,53.0436,0.0001293,15.72280158,351.5117066459761,353.25221884974326,1 46160U 20057AV  26158.83337963  .00051908  00000+0  38673-3 0  9997,2 46160  53.0436 202.9263 0001293 324.3654 275.4716 15.72280158  5967
STARLINK-1626,46167,53.0393,0.0001509,15.75497185,342.20250352990115,344.23100809340394,1 46167U 20057BC  26158.83337963  .00037749  00000+0  24651-3 0  9992,2 46167  53.0393 212.3837 0001509  69.2448 231.7426 15.75497185  6017
STARLINK-1633,46171,53.0332,0.0001549,15.83164828,320.45935232644115,322.534898978568,1 46171U 20057BG  26158.83337963  .00207798  00000+0  92680-3 0  9997,2 46171  53.0332 173.4460 0001549  97.0571 154.5337 15.83164828  5874
